ORBCOMM FM20            
1 25416U 98046D   25143.51085198  .00000700  00000+0  28061-3 0  9993
2 25416  44.9948 298.1283 0001796 176.7866 183.2993 14.37169916400753
ORBCOMM FM16            
1 25417U 98046E   25142.98048096  .00001090  00000+0  39672-3 0  9993
2 25417  44.9944 292.5405 0005627 175.3255 184.7647 14.38853774400843
ORBCOMM FM15            
1 25418U 98046F   25142.81149062  .00000838  00000+0  31780-3 0  9992
2 25418  44.9975 298.4116 0005207 174.1429 185.9481 14.38499794400764
ORBCOMM FM14            
1 25419U 98046G   25142.83561403  .00000933  00000+0  34630-3 0  9995
2 25419  44.9966 296.6068 0004017 170.7592 189.3331 14.38856244400783
ORBCOMM FM13            
1 25420U 98046H   25142.51091919  .00000882  00000+0  33804-3 0  9997
2 25420  44.9980 305.8763 0005847 153.4740 206.6408 14.37623126399540
ORBCOMM FM21            
1 25475U 98053A   25143.13709279  .00000768  00000+0  30231-3 0  9993
2 25475  45.0097  28.1176 0001611  62.8289 297.2723 14.37303743393977
ORBCOMM FM22            
1 25476U 98053B   25142.35862503  .00001069  00000+0  39418-3 0  9998
2 25476  45.0088  26.8637 0003363  78.3733 281.7493 14.38328496393556
ORBCOMM FM23            
1 25477U 98053C   25143.41895700  .00000862  00000+0  33243-3 0  9992
2 25477  45.0095  28.9406 0002548  73.7520 286.3608 14.37482064394145
